KUIPER-00027            
1 63740U 25088S   25220.58335648  .00005217  00000+0  17641-3 0  9992
2 63740  51.8745 326.7643 0002064 112.0867 242.2544 15.32295140  5909
KUIPER-00028            
1 63741U 25088T   25220.58335648 -.01426437  00000+0 -44060-1 0  9990
2 63741  51.8732 326.4863 0001927  57.1240  56.2970 15.36076519  5488
KUIPER-00029            
1 63742U 25088U   25220.55938023  .00015496  00000+0  42470-3 0  9995
2 63742  51.8705 327.2917 0004398 109.5454 250.6008 15.37473678 15865
KUIPER-00030            
1 63743U 25088V   25220.58335648 -.00016799  00000+0 -13164-2 0  9999
2 63743  51.8909 333.7489 0013744  94.0456 115.9898 14.99960751  5749
KUIPER-00031            
1 63744U 25088W   25220.58335648 -.00584005  00000+0 -21792-1 0  9995
2 63744  51.8745 327.0509 0002207  95.9847 119.7254 15.29044922  5535
KUIPER-00032            
1 63745U 25088X   25220.60066544  .00009638  00000+0  35036-3 0  9995
2 63745  51.8732 327.5395 0005015  78.8374 281.3172 15.28903120 16861
KUIPER-00033            
1 63746U 25088Y   25220.63734563  .00004002  00000+0  55388-3 0  9994
2 63746  51.9010 348.7091 0003013 177.0501 183.0479 14.79923512 16051
KUIPER-00034            
1 63747U 25088Z   25220.56791297  .00016369  00000+0  43710-3 0  9999
2 63747  51.8715 326.6259 0001384 101.3513 258.7629 15.38239528 16034
